[{"OBJECT_NAME":"STARLINK-30070","OBJECT_ID":"2023-067V","EPOCH":"2026-03-09T21:56:43.677024","MEAN_MOTION":15.27573671,"ECCENTRICITY":0.00011029,"INCLINATION":43.0037,"RA_OF_ASC_NODE":269.8522,"ARG_OF_PERICENTER":281.1267,"MEAN_ANOMALY":78.9461,"EPHEMERIS_TYPE":0,"CLASSIFICATION_TYPE":"U","NORAD_CAT_ID":56707,"ELEMENT_SET_NO":999,"REV_AT_EPOCH":15573,"BSTAR":-7.810323e-6,"MEAN_MOTION_DOT":-4.77e-6,"MEAN_MOTION_DDOT":0},{"OBJECT_NAME":"OBJECT D","OBJECT_ID":"2024-203D","EPOCH":"2026-03-09T23:01:14.628576","MEAN_MOTION":15.25394324,"ECCENTRICITY":0.00105281,"INCLINATION":97.4343,"RA_OF_ASC_NODE":139.6527,"ARG_OF_PERICENTER":340.1906,"MEAN_ANOMALY":19.8921,"EPHEMERIS_TYPE":0,"CLASSIFICATION_TYPE":"U","NORAD_CAT_ID":61872,"ELEMENT_SET_NO":999,"REV_AT_EPOCH":7378,"BSTAR":0.00059366578,"MEAN_MOTION_DOT":0.00014956,"MEAN_MOTION_DDOT":0}]
